INTELSAT 23 (IS-23)     
1 38867U 12057A   26202.00947524 -.00000284  00000+0  00000+0 0  9993
2 38867   0.0186  26.7548 0000485 105.7947 116.6357  1.00276117 50291
FM-6                    
1 39360U 13058A   26202.25600182  .00000000  00000+0  00000+0 0  9992
2 39360   0.0325  78.1926 0001448 102.0404  94.5784  1.00270732 46418
INTELSAT 30 (IS-30)     
1 40271U 14062A   26202.25555155 -.00000150  00000+0  00000+0 0  9997
2 40271   0.0146  51.9979 0001631 343.9220 260.0503  1.00270125  7136
DIRECTV 14              
1 40333U 14078B   26202.26192147 -.00000124  00000+0  00000+0 0  9993
2 40333   0.0134  55.3576 0000393 345.1303 253.5798  1.00271967 42387
DIRECTV 15              
1 40663U 15026A   26202.26086314 -.00000102  00000+0  00000+0 0  9997
2 40663   0.0217  79.8049 0000392 342.4285 227.8140  1.00271805 40800
SKY MEXICO-1            
1 40664U 15026B   26202.12822284 -.00000234  00000+0  00000+0 0  9993
2 40664   0.0284 273.5779 0002640 220.1685 132.5063  1.00270820 40792
INTELSAT 34 (IS-34)     
1 40874U 15039A   26202.24894057 -.00000285  00000+0  00000+0 0  9996
2 40874   0.0129 342.8507 0000588  50.7114 299.5802  1.00271303 39975
INTELSAT 31 (IS-31)     
1 41581U 16035A   26202.25555104 -.00000150  00000+0  00000+0 0  9998
2 41581   0.0266 266.8002 0000995  47.0114 342.1564  1.00271140 37022
INTELSAT 36 (IS-36)     
1 41747U 16053A   26202.13092764 -.00000024  00000+0  00000+0 0  9997
2 41747   0.0096  27.3690 0002453 322.6502  64.5004  1.00271862 36297
INTELSAT 32E (IS-32E)   
1 41945U 17007B   26202.25136725 -.00000268  00000+0  00000+0 0  9996
2 41945   0.0118  28.5649 0000569  15.2902 302.4664  1.00270201 34564
INTELSAT 35E (IS-35E)   
1 42818U 17041A   26202.25310059  .00000000  00000+0  00000+0 0  9991
2 42818   0.0225  57.3062 0002181  60.6537 237.6855  1.00269751 33155
INTELSAT 37E (IS-37E)   
1 42950U 17059A   26202.25630728 -.00000140  00000+0  00000+0 0  9991
2 42950   0.0178  68.0440 0002851  56.3684 248.8745  1.00272531 32406
AZERSPACE 2 (IS-38)     
1 43632U 18074A   26202.19758317  .00000000  00000+0  00000+0 0  9999
2 43632   0.0229  54.1368 0001553  65.2341 295.8372  1.00271478 28786
HORIZONS-3E             
1 43633U 18074B   26202.20600154 -.00000029  00000+0  00000+0 0  9999
2 43633   0.0379 230.2511 0000628  67.0932 244.7709  1.00273514 28687
AT&T T-16               
1 44333U 19034A   26202.25355031 -.00000114  00000+0  00000+0 0  9995
2 44333   0.0138  76.3077 0000506 292.2463 280.8752  1.00269693 25971
INTELSAT 39 (IS-39)     
1 44476U 19049B   26202.21642005  .00000034  00000+0  00000+0 0  9995
2 44476   0.0129  29.1280 0000927 327.8564  81.8504  1.00271737 25465
GALAXY 30 (G-30)        
1 46114U 20056C   26202.24488718  .00000038  00000+0  00000+0 0  9992
2 46114   0.0180  61.3569 0002180  54.6267 146.1755  1.00270846 21637
GALAXY 33 (G-33)        
1 54026U 22128A   26202.24091390  .00000079  00000+0  00000+0 0  9996
2 54026   0.0149 324.8879 0001826 157.4294 130.4101  1.00275915 14086
GALAXY 34 (G-34)        
1 54027U 22128B   26202.27892093  .00000000  00000+0  00000+0 0  9993
2 54027   0.0185  51.6472 0001801  61.4659 157.3495  1.00274407 14251
GALAXY 31 (G-31)        
1 54243U 22153A   26202.25600182  .00000014  00000+0  00000+0 0  9990
2 54243   0.0073 228.5504 0001311 252.8478 148.7703  1.00273147  7471
GALAXY 32 (G-32)        
1 54244U 22153B   26202.23933683 -.00000173  00000+0  00000+0 0  9991
2 54244   0.0052  14.9690 0001449  38.9543 240.2404  1.00271780 13485
GALAXY 35 (G-35)        
1 54741U 22170A   26202.24148720 -.00000161  00000+0  00000+0 0  9990
2 54741   0.0220  95.2867 0002024  22.2026 175.3415  1.00272185 13237
GALAXY 36 (G-36)        
1 54742U 22170B   26202.24226721 -.00000184  00000+0  00000+0 0  9994
2 54742   0.0206 132.9693 0002743 327.9110 196.3377  1.00271647 13114
GALAXY 37 (G-37)        
1 57493U 23112A   26202.27892093  .00000049  00000+0  00000+0 0  9990
2 57493   0.0194  59.8236 0002073  57.5353 155.0885  1.00272751 10881
