OBJECT_NAME,OBJECT_ID,EPOCH,MEAN_MOTION,ECCENTRICITY,INCLINATION,RA_OF_ASC_NODE,ARG_OF_PERICENTER,MEAN_ANOMALY,EPHEMERIS_TYPE,CLASSIFICATION_TYPE,NORAD_CAT_ID,ELEMENT_SET_NO,REV_AT_EPOCH,BSTAR,MEAN_MOTION_DOT,MEAN_MOTION_DDOT
INTELSAT 23 (IS-23),2012-057A,2026-07-21T00:13:38.660736,1.00276117,.0000485,0.0186,26.7548,105.7947,116.6357,0,U,38867,999,5029,0,-.284E-5,0
FM-6,2013-058A,2026-07-21T06:08:38.557248,1.00270732,.00014482,0.0325,78.1926,102.0404,94.5784,0,U,39360,999,4641,0,0,0
INTELSAT 30 (IS-30),2014-062A,2026-07-21T06:07:59.653920,1.00270125,.00016317,0.0146,51.9979,343.9220,260.0503,0,U,40271,999,713,0,-.15E-5,0
DIRECTV 14,2014-078B,2026-07-21T06:17:10.015008,1.00271967,.0000393,0.0134,55.3576,345.1303,253.5798,0,U,40333,999,4238,0,-.124E-5,0
DIRECTV 15,2015-026A,2026-07-21T06:15:38.575296,1.00271805,.0000392,0.0217,79.8049,342.4285,227.8140,0,U,40663,999,4080,0,-.102E-5,0
SKY MEXICO-1,2015-026B,2026-07-21T03:04:38.453376,1.00270820,.00026408,0.0284,273.5779,220.1685,132.5063,0,U,40664,999,4079,0,-.234E-5,0
INTELSAT 34 (IS-34),2015-039A,2026-07-21T05:58:28.465248,1.00271303,.00005889,0.0129,342.8507,50.7114,299.5802,0,U,40874,999,3997,0,-.285E-5,0
INTELSAT 31 (IS-31),2016-035A,2026-07-21T06:07:59.609856,1.00271140,.0000995,0.0266,266.8002,47.0114,342.1564,0,U,41581,999,3702,0,-.15E-5,0
INTELSAT 36 (IS-36),2016-053A,2026-07-21T03:08:32.148096,1.00271862,.00024538,0.0096,27.3690,322.6502,64.5004,0,U,41747,999,3629,0,-.24E-6,0
INTELSAT 32E (IS-32E),2017-007B,2026-07-21T06:01:58.130400,1.00270201,.00005691,0.0118,28.5649,15.2902,302.4664,0,U,41945,999,3456,0,-.268E-5,0
INTELSAT 35E (IS-35E),2017-041A,2026-07-21T06:04:27.890976,1.00269751,.00021813,0.0225,57.3062,60.6537,237.6855,0,U,42818,999,3315,0,0,0
INTELSAT 37E (IS-37E),2017-059A,2026-07-21T06:09:04.948992,1.00272531,.00028519,0.0178,68.0440,56.3684,248.8745,0,U,42950,999,3240,0,-.14E-5,0
AZERSPACE 2 (IS-38),2018-074A,2026-07-21T04:44:31.185888,1.00271478,.00015538,0.0229,54.1368,65.2341,295.8372,0,U,43632,999,2878,0,0,0
HORIZONS-3E,2018-074B,2026-07-21T04:56:38.533056,1.00273514,.00006284,0.0379,230.2511,67.0932,244.7709,0,U,43633,999,2868,0,-.29E-6,0
AT&T T-16,2019-034A,2026-07-21T06:05:06.746784,1.00269693,.00005065,0.0138,76.3077,292.2463,280.8752,0,U,44333,999,2597,0,-.114E-5,0
INTELSAT 39 (IS-39),2019-049B,2026-07-21T05:11:38.692320,1.00271737,.00009276,0.0129,29.1280,327.8564,81.8504,0,U,44476,999,2546,0,.34E-6,0
GALAXY 30 (G-30),2020-056C,2026-07-21T05:52:38.252352,1.00270846,.00021809,0.0180,61.3569,54.6267,146.1755,0,U,46114,999,2163,0,.38E-6,0
GALAXY 33 (G-33),2022-128A,2026-07-21T05:46:54.960960,1.00275915,.00018261,0.0149,324.8879,157.4294,130.4101,0,U,54026,999,1408,0,.79E-6,0
GALAXY 34 (G-34),2022-128B,2026-07-21T06:41:38.768352,1.00274407,.00018017,0.0185,51.6472,61.4659,157.3495,0,U,54027,999,1425,0,0,0
GALAXY 31 (G-31),2022-153A,2026-07-21T06:08:38.557248,1.00273147,.00013119,0.0073,228.5504,252.8478,148.7703,0,U,54243,999,747,0,.14E-6,0
GALAXY 32 (G-32),2022-153B,2026-07-21T05:44:38.702112,1.00271780,.0001449,0.0052,14.9690,38.9543,240.2404,0,U,54244,999,1348,0,-.173E-5,0
GALAXY 35 (G-35),2022-170A,2026-07-21T05:47:44.494080,1.00272185,.00020246,0.0220,95.2867,22.2026,175.3415,0,U,54741,999,1323,0,-.161E-5,0
GALAXY 36 (G-36),2022-170B,2026-07-21T05:48:51.886944,1.00271647,.0002743,0.0206,132.9693,327.9110,196.3377,0,U,54742,999,1311,0,-.184E-5,0
GALAXY 37 (G-37),2023-112A,2026-07-21T06:41:38.768352,1.00272751,.00020739,0.0194,59.8236,57.5353,155.0885,0,U,57493,999,1088,0,.49E-6,0
